IRIDIUM 166             
1 43570U 18061B   25039.82230624  .00000500  00000+0  17163-3 0  9996
2 43570  86.3929 262.8820 0002397  83.7791 276.3678 14.34218788342680
IRIDIUM 158             
1 43571U 18061C   25039.86034998  .00000474  00000+0  16229-3 0  9999
2 43571  86.3929 262.8757 0002126  92.5282 267.6157 14.34215932342664
IRIDIUM 165             
1 43572U 18061D   25039.60664899  .00000106  00000+0  30766-4 0  9996
2 43572  86.3929 263.0188 0002067  81.5187 278.6243 14.34218089342644
IRIDIUM 155             
1 43573U 18061E   25039.63836283  .00000308  00000+0  10285-3 0  9995
2 43573  86.3924 262.8990 0002341  91.7828 268.3636 14.34218232342617
IRIDIUM 154             
1 43574U 18061F   25039.61933388  .00000232  00000+0  75938-4 0  9991
2 43574  86.3929 263.0162 0002028  85.6882 274.4546 14.34218893342667
IRIDIUM 163             
1 43575U 18061G   25039.60030512  .00000403  00000+0  13684-3 0  9997
2 43575  86.3928 262.9550 0002004  90.8197 269.3228 14.34219720342634
IRIDIUM 156             
1 43576U 18061H   25039.57492736 -.00000141  00000+0 -57367-4 0  9992
2 43576  86.3930 262.9724 0002369  87.7999 272.3468 14.34212695342623
IRIDIUM 164             
1 43577U 18061J   25039.62567387  .00000489  00000+0  16773-3 0  9992
2 43577  86.3928 262.9837 0002042  80.2524 279.8902 14.34215158342673
